CCSDS_OMM_VERS = 2.0
CREATION_DATE  = 
ORIGINATOR     = 

OBJECT_NAME    = DELTA 2 R/B(1)
OBJECT_ID      = 1990-008B
CENTER_NAME    = EARTH
REF_FRAME      = TEME
TIME_SYSTEM    = UTC
MEAN_ELEMENT_THEORY = SGP/SGP4

EPOCH          = 2026-03-02T10:37:30.180288
MEAN_MOTION    = 15.54850817
ECCENTRICITY   = .00869822
INCLINATION    = 35.6028
RA_OF_ASC_NODE = 222.3764
ARG_OF_PERICENTER = 191.5547
MEAN_ANOMALY   = 168.3190

EPHEMERIS_TYPE = 0
CLASSIFICATION_TYPE = U
NORAD_CAT_ID   = 20453
ELEMENT_SET_NO = 999
REV_AT_EPOCH   = 92500
BSTAR          = .9052081E-3
MEAN_MOTION_DOT = .74557E-3
MEAN_MOTION_DDOT = 0

CCSDS_OMM_VERS = 2.0
CREATION_DATE  = 
ORIGINATOR     = 

OBJECT_NAME    = COSMOS 2058
OBJECT_ID      = 1990-010A
CENTER_NAME    = EARTH
REF_FRAME      = TEME
TIME_SYSTEM    = UTC
MEAN_ELEMENT_THEORY = SGP/SGP4

EPOCH          = 2026-03-03T03:49:41.256192
MEAN_MOTION    = 15.11248889
ECCENTRICITY   = .000986
INCLINATION    = 82.4665
RA_OF_ASC_NODE = 53.8612
ARG_OF_PERICENTER = 4.9455
MEAN_ANOMALY   = 355.1871

EPHEMERIS_TYPE = 0
CLASSIFICATION_TYPE = U
NORAD_CAT_ID   = 20465
ELEMENT_SET_NO = 999
REV_AT_EPOCH   = 94125
BSTAR          = .28665E-3
MEAN_MOTION_DOT = .4852E-4
MEAN_MOTION_DDOT = 0

CCSDS_OMM_VERS = 2.0
CREATION_DATE  = 
ORIGINATOR     = 

OBJECT_NAME    = SL-14 R/B
OBJECT_ID      = 1990-010B
CENTER_NAME    = EARTH
REF_FRAME      = TEME
TIME_SYSTEM    = UTC
MEAN_ELEMENT_THEORY = SGP/SGP4

EPOCH          = 2026-03-03T00:13:55.902720
MEAN_MOTION    = 14.83561935
ECCENTRICITY   = .0018962
INCLINATION    = 82.4992
RA_OF_ASC_NODE = 273.6651
ARG_OF_PERICENTER = 325.6443
MEAN_ANOMALY   = 34.3545

EPHEMERIS_TYPE = 0
CLASSIFICATION_TYPE = U
NORAD_CAT_ID   = 20466
ELEMENT_SET_NO = 999
REV_AT_EPOCH   = 92749
BSTAR          = .54157E-4
MEAN_MOTION_DOT = .471E-5
MEAN_MOTION_DDOT = 0

CCSDS_OMM_VERS = 2.0
CREATION_DATE  = 
ORIGINATOR     = 

OBJECT_NAME    = SL-14 R/B
OBJECT_ID      = 1990-018B
CENTER_NAME    = EARTH
REF_FRAME      = TEME
TIME_SYSTEM    = UTC
MEAN_ELEMENT_THEORY = SGP/SGP4

EPOCH          = 2026-03-02T22:53:08.949984
MEAN_MOTION    = 14.82135873
ECCENTRICITY   = .0017571
INCLINATION    = 82.5191
RA_OF_ASC_NODE = 229.3863
ARG_OF_PERICENTER = 112.4856
MEAN_ANOMALY   = 247.8221

EPHEMERIS_TYPE = 0
CLASSIFICATION_TYPE = U
NORAD_CAT_ID   = 20511
ELEMENT_SET_NO = 999
REV_AT_EPOCH   = 92158
BSTAR          = .75662E-4
MEAN_MOTION_DOT = .627E-5
MEAN_MOTION_DDOT = 0

CCSDS_OMM_VERS = 2.0
CREATION_DATE  = 
ORIGINATOR     = 

OBJECT_NAME    = HST
OBJECT_ID      = 1990-037B
CENTER_NAME    = EARTH
REF_FRAME      = TEME
TIME_SYSTEM    = UTC
MEAN_ELEMENT_THEORY = SGP/SGP4

EPOCH          = 2026-03-03T03:45:23.037696
MEAN_MOTION    = 15.29358901
ECCENTRICITY   = .0001675
INCLINATION    = 28.4701
RA_OF_ASC_NODE = 84.5634
ARG_OF_PERICENTER = 60.3567
MEAN_ANOMALY   = 299.7195

EPHEMERIS_TYPE = 0
CLASSIFICATION_TYPE = U
NORAD_CAT_ID   = 20580
ELEMENT_SET_NO = 999
REV_AT_EPOCH   = 77231
BSTAR          = .29119E-3
MEAN_MOTION_DOT = .8766E-4
MEAN_MOTION_DDOT = 0

CCSDS_OMM_VERS = 2.0
CREATION_DATE  = 
ORIGINATOR     = 

OBJECT_NAME    = SL-16 R/B
OBJECT_ID      = 1990-046B
CENTER_NAME    = EARTH
REF_FRAME      = TEME
TIME_SYSTEM    = UTC
MEAN_ELEMENT_THEORY = SGP/SGP4

EPOCH          = 2026-03-03T02:56:54.845664
MEAN_MOTION    = 14.15014698
ECCENTRICITY   = .0016124
INCLINATION    = 71.0003
RA_OF_ASC_NODE = 311.7062
ARG_OF_PERICENTER = 308.4467
MEAN_ANOMALY   = 51.5208

EPHEMERIS_TYPE = 0
CLASSIFICATION_TYPE = U
NORAD_CAT_ID   = 20625
ELEMENT_SET_NO = 999
REV_AT_EPOCH   = 84746
BSTAR          = -.64098E-4
MEAN_MOTION_DOT = -.172E-5
MEAN_MOTION_DDOT = 0

CCSDS_OMM_VERS = 2.0
CREATION_DATE  = 
ORIGINATOR     = 

OBJECT_NAME    = COSMOS 2084
OBJECT_ID      = 1990-055A
CENTER_NAME    = EARTH
REF_FRAME      = TEME
TIME_SYSTEM    = UTC
MEAN_ELEMENT_THEORY = SGP/SGP4

EPOCH          = 2026-03-03T03:31:25.992768
MEAN_MOTION    = 15.05601210
ECCENTRICITY   = .0018121
INCLINATION    = 62.7926
RA_OF_ASC_NODE = 357.8915
ARG_OF_PERICENTER = 188.5743
MEAN_ANOMALY   = 171.5050

EPHEMERIS_TYPE = 0
CLASSIFICATION_TYPE = U
NORAD_CAT_ID   = 20663
ELEMENT_SET_NO = 999
REV_AT_EPOCH   = 93533
BSTAR          = .24966E-3
MEAN_MOTION_DOT = .3428E-4
MEAN_MOTION_DDOT = 0

CCSDS_OMM_VERS = 2.0
CREATION_DATE  = 
ORIGINATOR     = 

OBJECT_NAME    = SL-6 R/B(2)
OBJECT_ID      = 1990-055D
CENTER_NAME    = EARTH
REF_FRAME      = TEME
TIME_SYSTEM    = UTC
MEAN_ELEMENT_THEORY = SGP/SGP4

EPOCH          = 2026-03-02T23:42:02.248992
MEAN_MOTION    = 15.03555926
ECCENTRICITY   = .0023719
INCLINATION    = 62.7820
RA_OF_ASC_NODE = 276.6432
ARG_OF_PERICENTER = 345.3800
MEAN_ANOMALY   = 14.6610

EPHEMERIS_TYPE = 0
CLASSIFICATION_TYPE = U
NORAD_CAT_ID   = 20666
ELEMENT_SET_NO = 999
REV_AT_EPOCH   = 93718
BSTAR          = .18473E-3
MEAN_MOTION_DOT = .2348E-4
MEAN_MOTION_DDOT = 0

CCSDS_OMM_VERS = 2.0
CREATION_DATE  = 
ORIGINATOR     = 

OBJECT_NAME    = SL-8 R/B
OBJECT_ID      = 1990-078B
CENTER_NAME    = EARTH
REF_FRAME      = TEME
TIME_SYSTEM    = UTC
MEAN_ELEMENT_THEORY = SGP/SGP4

EPOCH          = 2026-03-02T23:45:21.473568
MEAN_MOTION    = 14.88795510
ECCENTRICITY   = .0363882
INCLINATION    = 82.8990
RA_OF_ASC_NODE = 257.3366
ARG_OF_PERICENTER = 36.5052
MEAN_ANOMALY   = 326.0384

EPHEMERIS_TYPE = 0
CLASSIFICATION_TYPE = U
NORAD_CAT_ID   = 20775
ELEMENT_SET_NO = 999
REV_AT_EPOCH   = 80830
BSTAR          = .48171E-3
MEAN_MOTION_DOT = .16397E-3
MEAN_MOTION_DDOT = 0

CCSDS_OMM_VERS = 2.0
CREATION_DATE  = 
ORIGINATOR     = 

OBJECT_NAME    = SL-8 R/B
OBJECT_ID      = 1991-006B
CENTER_NAME    = EARTH
REF_FRAME      = TEME
TIME_SYSTEM    = UTC
MEAN_ELEMENT_THEORY = SGP/SGP4

EPOCH          = 2026-03-02T21:09:20.321280
MEAN_MOTION    = 13.77493260
ECCENTRICITY   = .0023427
INCLINATION    = 82.9463
RA_OF_ASC_NODE = 175.1067
ARG_OF_PERICENTER = 56.6915
MEAN_ANOMALY   = 65.6886

EPHEMERIS_TYPE = 0
CLASSIFICATION_TYPE = U
NORAD_CAT_ID   = 21088
ELEMENT_SET_NO = 999
REV_AT_EPOCH   = 76313
BSTAR          = .3093E-4
MEAN_MOTION_DOT = .46E-6
MEAN_MOTION_DDOT = 0

CCSDS_OMM_VERS = 2.0
CREATION_DATE  = 
ORIGINATOR     = 

OBJECT_NAME    = OKEAN-3
OBJECT_ID      = 1991-039A
CENTER_NAME    = EARTH
REF_FRAME      = TEME
TIME_SYSTEM    = UTC
MEAN_ELEMENT_THEORY = SGP/SGP4

EPOCH          = 2026-03-03T03:53:45.226464
MEAN_MOTION    = 15.04747394
ECCENTRICITY   = .0014339
INCLINATION    = 82.5201
RA_OF_ASC_NODE = 343.1655
ARG_OF_PERICENTER = 1.7263
MEAN_ANOMALY   = 358.4010

EPHEMERIS_TYPE = 0
CLASSIFICATION_TYPE = U
NORAD_CAT_ID   = 21397
ELEMENT_SET_NO = 999
REV_AT_EPOCH   = 86405
BSTAR          = .26175E-3
MEAN_MOTION_DOT = .3723E-4
MEAN_MOTION_DDOT = 0

CCSDS_OMM_VERS = 2.0
CREATION_DATE  = 
ORIGINATOR     = 

OBJECT_NAME    = COSMOS 2151
OBJECT_ID      = 1991-042A
CENTER_NAME    = EARTH
REF_FRAME      = TEME
TIME_SYSTEM    = UTC
MEAN_ELEMENT_THEORY = SGP/SGP4

EPOCH          = 2026-03-03T03:30:41.557248
MEAN_MOTION    = 15.00073567
ECCENTRICITY   = .0014139
INCLINATION    = 82.4930
RA_OF_ASC_NODE = 89.9898
ARG_OF_PERICENTER = 83.1105
MEAN_ANOMALY   = 277.1727

EPHEMERIS_TYPE = 0
CLASSIFICATION_TYPE = U
NORAD_CAT_ID   = 21422
ELEMENT_SET_NO = 999
REV_AT_EPOCH   = 86221
BSTAR          = .16997E-3
MEAN_MOTION_DOT = .2148E-4
MEAN_MOTION_DDOT = 0

